OBJECT_NAME,OBJECT_ID,EPOCH,MEAN_MOTION,ECCENTRICITY,INCLINATION,RA_OF_ASC_NODE,ARG_OF_PERICENTER,MEAN_ANOMALY,EPHEMERIS_TYPE,CLASSIFICATION_TYPE,NORAD_CAT_ID,ELEMENT_SET_NO,REV_AT_EPOCH,BSTAR,MEAN_MOTION_DOT,MEAN_MOTION_DDOT
LEMUR-2-ROUNDTRIPPER,2025-009DG,2026-07-17T11:56:40.543008,15.04252230,.0004501,97.7248,281.1409,59.8268,300.3403,0,U,62711,999,8218,.30046E-3,.4118E-4,0
LEMUR-2-MYNAMEISJEFF,2025-009DH,2026-07-16T19:56:37.511808,15.04238210,.00042188,97.7299,280.8736,93.9545,266.2163,0,U,62712,999,8208,.32713731E-3,.4487E-4,0
LEMUR-2-LEIA-PHILIP,2025-052AN,2026-07-17T22:38:17.844576,14.97392341,.00050589,97.6797,90.3724,113.5974,246.5780,0,U,63246,999,7327,.4555851E-5,-.4E-7,0
LEMUR-2-LIA-MARTIN,2025-052AQ,2026-07-17T03:14:31.836480,14.98037500,.00051892,97.6861,90.1001,85.6997,274.4819,0,U,63248,999,7316,.13774583E-3,.157E-4,0
LEMUR-2-DELOITTE-1,2025-052BB,2026-07-17T22:01:15.824064,14.97795462,.00025373,97.6884,91.2003,61.2383,298.9094,0,U,63259,999,7329,.20944461E-3,.2402E-4,0
LEMUR-2-EMERSONROSE,2025-052BD,2026-07-17T04:40:35.468544,14.99301194,.00026189,97.6883,91.1066,57.1007,303.0468,0,U,63261,999,7323,.20040749E-3,.2388E-4,0
LEMUR-2-MARACHE-FRAN,2025-052BE,2026-07-17T22:47:45.760416,15.00325136,.00055225,97.6823,92.2216,241.3686,118.6983,0,U,63262,999,7337,.13706438E-3,.166E-4,0
LEMUR-2-THEFALCONER,2025-052BG,2026-07-17T22:45:42.042528,14.97569358,.00004739,97.6821,90.8183,247.5974,112.5198,0,U,63264,999,7329,.95366085E-4,.1056E-4,0
LEMUR-2-UNTITLED-SC,2025-061A,2026-07-17T21:30:42.505056,15.13655854,.00194675,97.5659,174.0411,154.0615,206.1596,0,U,63351,999,7223,.99399022E-4,.1728E-4,0
LEMUR-2-ESPERANZA,2025-061B,2026-07-17T20:54:55.057248,15.13762207,.00190656,97.5666,174.1173,153.4067,206.8147,0,U,63352,999,7223,.10092637E-3,.176E-4,0
LEMUR-2-KREMPEL-BRO2,2025-061C,2026-07-17T21:21:09.103680,15.14189102,.00201991,97.5711,174.7078,146.3650,213.8868,0,U,63353,999,7225,.10388431E-3,.1837E-4,0
LEMUR-2-THERMORAPTOR,2025-061D,2026-07-17T20:52:56.525952,15.14271999,.00199289,97.5717,174.7700,145.3239,214.9296,0,U,63354,999,7225,.10476919E-3,.1857E-4,0
LEMUR-2-NEUROSPICY,2025-061E,2026-07-17T21:43:53.288832,15.14390938,.00177437,97.5645,174.4075,148.0328,212.1984,0,U,63355,999,7226,.10469154E-3,.1861E-4,0
LEMUR-2-TILLINFINITY,2025-061F,2026-07-17T22:17:37.354848,15.14976106,.00192779,97.5629,174.7430,137.0245,223.2497,0,U,63356,999,7229,.10546616E-3,.1908E-4,0
LEMUR-2-KREMPEL-BRO1,2025-061G,2026-07-17T21:45:04.639680,15.14782081,.00198796,97.5631,174.6278,138.4216,221.8532,0,U,63357,999,7228,.10408968E-3,.1872E-4,0
LEMUR-2-LANGER2SPACE,2025-061H,2026-07-17T20:56:59.120736,15.14475742,.00176198,97.5635,174.3964,146.4751,213.7599,0,U,63358,999,7226,.1064699E-3,.1898E-4,0
LEMUR-2-BALTO,2025-052BH,2026-07-16T22:24:34.244352,15.00373082,.00050442,97.6925,91.2085,320.2373,39.8480,0,U,63395,999,7322,.1988074E-3,.2437E-4,0
LEMUR-2-KRISH,2025-135AK,2026-07-17T21:38:43.953504,14.96458756,.00011409,97.7769,313.5749,100.5388,259.5962,0,U,64561,999,5851,.17326887E-3,.1908E-4,0
LEMUR-2-HUBBLE-4,2025-135AP,2026-07-17T21:18:23.025600,14.93690089,.0002869,97.7722,312.4391,155.4707,204.6649,0,U,64565,999,5845,.54487333E-4,.52E-5,0
LEMUR-2-SEJONG-2,2025-135BL,2026-07-17T20:31:33.672576,14.96924324,.00041309,97.7709,313.6739,205.9859,154.1156,0,U,64586,999,5853,.21242966E-3,.2381E-4,0
LEMUR-2-HUBBLE-5,2025-135BT,2026-07-17T21:29:44.327616,14.94217209,.00045003,97.7742,313.1189,224.3366,135.7494,0,U,64840,999,5849,.40666222E-4,.379E-5,0
LEMUR-2-KARENDARRELL,2025-135BU,2026-07-17T20:43:59.094624,15.00521478,.00126903,97.7722,315.0336,96.6097,263.6572,0,U,64841,999,5861,.3246888E-3,.4039E-4,0
LEMUR-2-LUCILLE-ROSE,2025-135BV,2026-07-17T20:05:47.573088,15.00506994,.00151917,97.7708,315.0422,181.1612,178.9579,0,U,65403,999,5323,.27499264E-3,.3412E-4,0
LEMUR-2-AFFIE-WAUWIE,2025-248C,2026-07-17T07:55:40.156032,15.28312820,.0008948,45.3906,311.5299,263.2179,96.7692,0,U,66295,999,3920,.46965E-3,.12925E-3,0
OTTER SDM,2025-276N,2026-07-17T11:12:44.326944,15.20071543,.0004416,97.4199,271.4454,243.2607,116.8176,0,U,66678,999,3501,.14739E-3,.3113E-4,0
LEMUR-2-STAS-GORBUK,2025-276W,2026-07-17T22:48:11.026368,15.19674346,.00037604,97.4234,271.9720,234.4575,125.6310,0,U,66686,999,3508,.13888799E-3,.2895E-4,0
LEMUR-2-TEODOR,2025-276DG,2026-07-17T15:17:16.895040,15.21351636,.00021933,97.4140,271.9387,86.0179,274.1307,0,U,66768,999,3507,.1279462E-3,.2797E-4,0
LEMUR-2-LAILA,2025-276DQ,2026-07-17T16:07:58.359936,15.21578039,.00028936,97.4162,272.1136,90.9081,269.2486,0,U,66776,999,3508,.12905E-3,.2841E-4,0
LEMUR-2-CELIJO-SB-PK,2025-276DW,2026-07-17T22:03:55.426464,15.00301688,.00068312,97.5186,268.6824,57.6797,302.5088,0,U,66781,999,2723,.2554326E-3,.3145E-4,0
LEMUR-2-FINNIAN,2025-276DX,2026-07-17T10:08:06.796032,15.00631674,.0007425,97.5344,268.4746,350.8943,9.2145,0,U,66782,999,2453,.11408E-3,.1385E-4,0
